NORAD_CAT_ID,OBJECT_NAME,OBJECT_TYPE,EPOCH,MEAN_MOTION,ECCENTRICITY,INCLINATION,RA_OF_ASC_NODE,ARG_OF_PERICENTER,MEAN_ANOMALY,BSTAR,MEAN_MOTION_DOT,MEAN_MOTION_DDOT,TLE_LINE0,TLE_LINE1,TLE_LINE2,SEMIMAJOR_AXIS,PERIOD,APOGEE,PERIGEE,DECAYED
49151.0,STARLINK-3102,PAYLOAD,2023-04-10 03:42:57,14.98334264,0.0002764,70.0009,58.5212,263.5699,96.5145,1.3476e-05,6.8e-07,0.0,0 STARLINK-3102,1 49151U 21082X   23100.15483688  .00000068  00000-0  13476-4 0  9991,2 49151  70.0009  58.5212 0002764 263.5699  96.5145 14.98334264 88718,6950.18,96.107,573.966,570.124,0.0
49151.0,STARLINK-3102,PAYLOAD,2023-04-10 08:31:21,14.98333663,0.0002859,70.0009,58.0163,266.3857,93.6975,9.0218e-05,9.84e-06,0.0,0 STARLINK-3102,1 49151U 21082X   23100.35511546  .00000984  00000-0  90218-4 0  9994,2 49151  70.0009  58.0163 0002859 266.3857  93.6975 14.98333663 88733,6950.182,96.107,574.034,570.06,0.0
49151.0,STARLINK-3102,PAYLOAD,2023-04-11 06:57:14,14.9833715,0.0002829,70.0012,55.6598,268.2776,91.8059,0.00011123,1.235e-05,0.0,0 STARLINK-3102,1 49151U 21082X   23101.28975057  .00001235  00000-0  11123-3 0  9995,2 49151  70.0012  55.6598 0002829 268.2776  91.8059 14.98337150 88884,6950.171,96.107,574.002,570.07,0.0
49151.0,STARLINK-3102,PAYLOAD,2023-04-12 13:23:48,14.98334989,0.0002764,70.0019,52.4625,265.4545,94.6299,-0.0001505,-1.888e-05,0.0,0 STARLINK-3102,1 49151U 21082X   23102.55819766 -.00001888  00000-0 -15050-3 0  9999,2 49151  70.0019  52.4625 0002764 265.4545  94.6299 14.98334989 89063,6950.177,96.107,573.963,570.121,0.0
49151.0,STARLINK-3102,PAYLOAD,2023-04-13 07:01:16,14.98335129,0.0002928,70.0014,50.6106,267.9004,92.182,-9.0069e-07,-1.04e-06,0.0,0 STARLINK-3102,1 49151U 21082X   23103.29255386 -.00000104  00000-0 -90069-6 0  9999,2 49151  70.0014  50.6106 0002928 267.9004  92.1820 14.98335129 89173,6950.177,96.107,574.077,570.007,0.0
49151.0,STARLINK-3102,PAYLOAD,2023-04-13 13:25:49,14.98332043,0.0002921,70.0015,49.9373,271.3639,88.7185,-1.4238e-06,-1.1e-06,0.0,0 STARLINK-3102,1 49151U 21082X   23103.55959566 -.00000110  00000-0 -14238-5 0  9999,2 49151  70.0015  49.9373 0002921 271.3639  88.7185 14.98332043 89220,6950.187,96.107,574.082,570.021,0.0
49151.0,STARLINK-3102,PAYLOAD,2023-04-14 05:27:09,14.98335047,0.0002896,70.0016,48.2544,265.5581,94.5248,0.00010921,1.21e-05,0.0,0 STARLINK-3102,1 49151U 21082X   23104.22719086  .00001210  00000-0  10921-3 0  9998,2 49151  70.0016  48.2544 0002896 265.5581  94.5248 14.98335047 89317,6950.177,96.107,574.055,570.03,0.0
49151.0,STARLINK-3102,PAYLOAD,2023-04-15 02:16:54,14.98331413,0.0002807,70.002,46.0664,265.2209,94.863,2.0976e-05,1.57e-06,0.0,0 STARLINK-3102,1 49151U 21082X   23105.09507515  .00000157  00000-0  20976-4 0  9997,2 49151  70.0020  46.0664 0002807 265.2209  94.8630 14.98331413 89453,6950.189,96.107,574.004,570.103,0.0
49151.0,STARLINK-3102,PAYLOAD,2023-04-15 05:29:10,14.98334603,0.0002761,70.0021,45.7298,265.6498,94.4346,5.8522e-05,6.05e-06,0.0,0 STARLINK-3102,1 49151U 21082X   23105.22859225  .00000605  00000-0  58522-4 0  9996,2 49151  70.0021  45.7298 0002761 265.6498  94.4346 14.98334603 89461,6950.179,96.107,573.963,570.125,0.0
49151.0,STARLINK-3102,PAYLOAD,2023-04-15 21:30:31,14.98326108,0.0002681,70.0026,44.0477,266.6384,93.4468,-5.6778e-05,-7.7e-06,0.0,0 STARLINK-3102,1 49151U 21082X   23105.89620103 -.00000770  00000-0 -56778-4 0  9996,2 49151  70.0026  44.0477 0002681 266.6384  93.4468 14.98326108 89569,6950.205,96.107,573.933,570.207,0.0
49151.0,STARLINK-3102,PAYLOAD,2023-04-16 02:18:55,14.98330492,0.0002543,70.0029,43.5425,259.9671,100.1201,-1.8698e-05,-3.16e-06,0.0,0 STARLINK-3102,1 49151U 21082X   23106.09647730 -.00000316  00000-0 -18698-4 0  9999,2 49151  70.0029  43.5425 0002543 259.9671 100.1201 14.98330492 89607,6950.191,96.107,573.824,570.289,0.0
49151.0,STARLINK-3102,PAYLOAD,2023-04-16 05:31:11,14.98332609,0.00028,70.0022,43.2057,263.8136,96.2704,-9.5798e-06,-2.07e-06,0.0,0 STARLINK-3102,1 49151U 21082X   23106.22999577 -.00000207  00000-0 -95798-5 0  9999,2 49151  70.0022  43.2057 0002800 263.8136  96.2704 14.98332609 89610,6950.185,96.107,573.996,570.104,0.0
49151.0,STARLINK-3102,PAYLOAD,2023-04-16 21:32:32,14.98327581,0.0002841,70.0024,41.5237,263.9928,96.0907,6.9865e-06,-1e-07,0.0,0 STARLINK-3102,1 49151U 21082X   23106.89759935 -.00000010  00000-0  69865-5 0  9991,2 49151  70.0024  41.5237 0002841 263.9928  96.0907 14.98327581 89715,6950.2,96.107,574.04,570.091,0.0
49151.0,STARLINK-3102,PAYLOAD,2023-04-17 05:33:14,14.98308087,0.0003069,70.0014,40.6812,263.5282,96.5527,-0.00021318,-2.634e-05,0.0,0 STARLINK-3102,1 49151U 21082X   23107.23141938 -.00002634  00000-0 -21318-3 0  9992,2 49151  70.0014  40.6812 0003069 263.5282  96.5527 14.98308087 89763,6950.261,96.108,574.259,569.993,0.0
49151.0,STARLINK-3102,PAYLOAD,2023-04-17 21:34:35,14.98314279,0.0003362,70.0005,38.9969,263.5525,96.5251,-0.00010307,-1.322e-05,0.0,0 STARLINK-3102,1 49151U 21082X   23107.89902126 -.00001322  00000-0 -10307-3 0  9997,2 49151  70.0005  38.9969 0003362 263.5525  96.5251 14.98314279 89867,6950.242,96.108,574.443,569.77,0.0
49151.0,STARLINK-3102,PAYLOAD,2023-04-18 02:22:59,14.9832301,0.0002711,70.0029,38.496,249.478,110.6088,6.8083e-06,-1.2e-07,0.0,0 STARLINK-3102,1 49151U 21082X   23108.09929473 -.00000012  00000-0  68083-5 0  9994,2 49151  70.0029  38.4960 0002711 249.4780 110.6088 14.98323010 89906,6950.215,96.107,573.964,570.195,0.0
49151.0,STARLINK-3102,PAYLOAD,2023-04-18 05:35:15,14.98324162,0.0002641,70.0032,38.1593,248.873,111.2146,1.9623e-05,1.41e-06,0.0,0 STARLINK-3102,1 49151U 21082X   23108.23281458  .00000141  00000-0  19623-4 0  9991,2 49151  70.0032  38.1593 0002641 248.8730 111.2146 14.98324162 89911,6950.211,96.107,573.911,570.24,0.0
49151.0,STARLINK-3102,PAYLOAD,2023-04-18 18:24:18,14.98335694,0.0003124,70.001,36.8085,262.1378,97.9426,0.00021089,2.425e-05,0.0,0 STARLINK-3102,1 49151U 21082X   23108.76688235  .00002425  00000-0  21089-3 0  9998,2 49151  70.0010  36.8085 0003124 262.1378  97.9426 14.98335694 90007,6950.175,96.107,574.212,569.869,0.0
49151.0,STARLINK-3102,PAYLOAD,2023-04-19 05:37:14,14.98346678,0.0002532,70.003,35.6325,249.2532,110.8355,0.00036904,4.315e-05,0.0,0 STARLINK-3102,1 49151U 21082X   23109.23419160  .00004315  00000-0  36904-3 0  9992,2 49151  70.0030  35.6325 0002532 249.2532 110.8355 14.98346678 90069,6950.141,96.106,573.766,570.247,0.0
49151.0,STARLINK-3102,PAYLOAD,2023-04-20 00:50:51,14.98341919,0.0001467,70.0049,33.6135,231.3778,128.7249,0.00030967,3.605e-05,0.0,0 STARLINK-3102,1 49151U 21082X   23110.03531615  .00003605  00000-0  30967-3 0  9996,2 49151  70.0049  33.6135 0001467 231.3778 128.7249 14.98341919 90193,6950.156,96.106,573.041,571.001,0.0
49151.0,STARLINK-3102,PAYLOAD,2023-04-20 04:03:07,14.98339642,0.0002801,70.0019,33.2753,255.663,104.4218,0.00013933,1.57e-05,0.0,0 STARLINK-3102,1 49151U 21082X   23110.16883883  .00001570  00000-0  13933-3 0  9990,2 49151  70.0019  33.2753 0002801 255.6630 104.4218 14.98339642 90200,6950.163,96.106,573.975,570.081,0.0
49151.0,STARLINK-3102,PAYLOAD,2023-04-21 12:05:48,14.98340044,0.0002723,70.0031,29.9086,264.6269,95.4579,-0.00012237,-1.553e-05,0.0,0 STARLINK-3102,1 49151U 21082X   23111.50403818 -.00001553  00000-0 -12237-3 0  9994,2 49151  70.0031  29.9086 0002723 264.6269  95.4579 14.98340044 90405,6950.162,96.106,573.919,570.134,0.0
49151.0,STARLINK-3102,PAYLOAD,2023-04-22 00:54:52,14.98341637,0.0003197,70.0006,28.5618,265.4936,94.5857,9.1549e-05,1e-05,0.0,0 STARLINK-3102,1 49151U 21082X   23112.03811106  .00001000  00000-0  91549-4 0  9995,2 49151  70.0006  28.5618 0003197 265.4936  94.5857 14.98341637 90485,6950.157,96.106,574.244,569.8,0.0
49151.0,STARLINK-3102,PAYLOAD,2023-04-23 00:56:54,14.98329938,0.0002988,70.0008,26.038,265.1592,94.9226,0.00015658,1.776e-05,0.0,0 STARLINK-3102,1 49151U 21082X   23113.03951432  .00001776  00000-0  15658-3 0  9999,2 49151  70.0008  26.0380 0002988 265.1592  94.9226 14.98329938 90640,6950.193,96.107,574.135,569.981,0.0
49151.0,STARLINK-3102,PAYLOAD,2023-04-23 02:33:02,14.9833088,0.000293,70.0007,25.8698,260.9788,99.104,0.0001437,1.622e-05,0.0,0 STARLINK-3102,1 49151U 21082X   23113.10627435  .00001622  00000-0  14370-3 0  9990,2 49151  70.0007  25.8698 0002930 260.9788  99.1040 14.98330880 90644,6950.19,96.107,574.092,570.019,0.0
49151.0,STARLINK-3102,PAYLOAD,2023-04-23 16:58:14,14.98343133,0.0002748,70.0009,24.3551,267.3628,92.7217,-0.00010819,-1.384e-05,0.0,0 STARLINK-3102,1 49151U 21082X   23113.70711159 -.00001384  00000-0 -10819-3 0  9994,2 49151  70.0009  24.3551 0002748 267.3628  92.7217 14.98343133 90739,6950.152,96.106,573.927,570.107,0.0
49151.0,STARLINK-3102,PAYLOAD,2023-04-24 00:58:54,14.98337995,0.0002976,70.0009,23.513,267.8571,92.2247,5.569e-05,5.72e-06,0.0,0 STARLINK-3102,1 49151U 21082X   23114.04090906  .00000572  00000-0  55690-4 0  9995,2 49151  70.0009  23.5130 0002976 267.8571  92.2247 14.98337995 90791,6950.168,96.106,574.102,569.965,0.0
49151.0,STARLINK-3102,PAYLOAD,2023-04-25 02:37:00,14.98365354,0.0002594,70.0006,20.8182,269.7215,90.3647,7.1213e-05,7.58e-06,0.0,0 STARLINK-3102,1 49151U 21082X   23115.10903791  .00000758  00000-0  71213-4 0  9993,2 49151  70.0006  20.8182 0002594 269.7215  90.3647 14.98365354 90958,6950.084,96.105,573.751,570.146,0.0
49151.0,STARLINK-3102,PAYLOAD,2023-04-26 02:39:08,14.98287515,0.0003223,70.0001,18.2938,272.4863,87.5927,-0.00050881,-6.152e-05,0.0,0 STARLINK-3102,1 49151U 21082X   23116.11051039 -.00006152  00000-0 -50881-3 0  9997,2 49151  70.0001  18.2938 0003223 272.4863  87.5927 14.98287515 91090,6950.324,96.11,574.429,569.949,0.0
49151.0,STARLINK-3102,PAYLOAD,2023-04-26 17:04:18,14.98323426,0.000248,70.0023,16.7803,276.3726,83.715,-0.00019488,-2.417e-05,0.0,0 STARLINK-3102,1 49151U 21082X   23116.71132732 -.00002417  00000-0 -19488-3 0  9991,2 49151  70.0023  16.7803 0002480 276.3726  83.7150 14.98323426 91181,6950.213,96.107,573.802,570.355,0.0
